STARLINK-36208          
1 67108U 25299G   26004.25002315 -.00073995  00000+0 -12664-2 0  9994
2 67108  42.9994 180.2873 0002001 254.1984 186.7951 15.50598965  4426
STARLINK-35764          
1 67109U 25299H   26004.25002315 -.02102170  00000+0 -40282-1 0  9991
2 67109  42.9995 180.2823 0001448 268.8127 174.0779 15.50630830  4312
STARLINK-35781          
1 67110U 25299J   26004.25002315 -.00043676  00000+0 -74269-3 0  9990
2 67110  42.9995 180.2724 0001720 266.2098 180.5365 15.50582968  4373
STARLINK-35875          
1 67111U 25299K   26004.25002315 -.00144381  00000+0 -24939-2 0  9994
2 67111  42.9994 180.2789 0001656 268.3095 176.5052 15.50656605  4314
STARLINK-35906          
1 67112U 25299L   26004.25002315  .00118538  00000+0  19994-2 0  9993
2 67112  42.9995 180.2684 0001753 273.9412 174.6859 15.50529302  4310
STARLINK-35789          
1 67113U 25299M   26004.25002315 -.00036948  00000+0 -62694-3 0  9996
2 67113  42.9995 180.2628 0001693 269.0680 181.5134 15.50578707  4311
STARLINK-36180          
1 67114U 25299N   26004.25002315 -.00058573  00000+0 -99960-3 0  9991
2 67114  42.9995 180.2582 0001777 262.5927 189.9027 15.50590769  4423
STARLINK-35892          
1 67115U 25299P   26004.25002315 -.00188999  00000+0 -32862-2 0  9995
2 67115  42.9995 180.2539 0001704 270.6546 183.7369 15.50645400  4315
STARLINK-35738          
1 67116U 25299Q   26004.25002315 -.00075366  00000+0 -12903-2 0  9993
2 67116  42.9995 180.2492 0001719 262.8023 193.5344 15.50598660  4310
STARLINK-35674          
1 67117U 25299R   26004.25002315 -.01951223  00000+0 -44583-1 0  9998
2 67117  42.9997 180.2690 0001137 278.2096 169.8386 15.45388750  4221
STARLINK-35701          
1 67118U 25299S   26004.25002315 -.00051390  00000+0 -87559-3 0  9996
2 67118  42.9994 180.2397 0001649 272.0203 188.1390 15.50588640  4374
STARLINK-36179          
1 67119U 25299T   26004.25002315 -.02042310  00000+0 -45383-1 0  9998
2 67119  43.0000 180.2479 0001623 270.7833 186.0687 15.46344077  4423
